IRIDIUM 135             
1 43070U 17083A   26197.31480545  .00000069  00000+0  17623-4 0  9995
2 43070  86.3986 309.8400 0002211  93.9279 266.2170 14.34218108448322
IRIDIUM 138             
1 43071U 17083B   26197.27040522  .00000136  00000+0  41414-4 0  9998
2 43071  86.3999 309.5583 0002058  92.2687 267.8744 14.34218881448300
IRIDIUM 116             
1 43072U 17083C   26197.30846155  .00000124  00000+0  37228-4 0  9994
2 43072  86.3986 309.8280 0002484  98.0186 262.1292 14.34217973448346
IRIDIUM 130             
1 43073U 17083D   26197.27675221  .00000135  00000+0  41061-4 0  9997
2 43073  86.3993 310.1194 0002284 100.5433 259.6020 14.34218184448284
IRIDIUM 151             
1 43074U 17083E   26197.32114826  .00000114  00000+0  33670-4 0  9997
2 43074  86.3986 309.8813 0002268  95.0124 265.1331 14.34218210448318
IRIDIUM 134             
1 43075U 17083F   26197.28943521  .00000062  00000+0  14957-4 0  9994
2 43075  86.3988 309.9028 0002238  95.0292 265.1160 14.34217958448276
IRIDIUM 137             
1 43076U 17083G   26197.30212125  .00000073  00000+0  19033-4 0  9999
2 43076  86.3990 309.9911 0002714  93.7549 266.3957 14.34218125448342
IRIDIUM 141             
1 43077U 17083H   26197.29577722  .00000082  00000+0  22245-4 0  9994
2 43077  86.3985 309.8226 0002180  93.3114 266.8332 14.34217848448349
IRIDIUM 153             
1 43078U 17083J   26197.17818745  .00000067  00000+0  16983-4 0  9990
2 43078  86.3958 278.3508 0002119  94.6638 265.4800 14.34217915449431
IRIDIUM 131             
1 43079U 17083K   26197.28309184  .00000113  00000+0  33215-4 0  9994
2 43079  86.3991 310.0159 0002237  93.6518 266.4933 14.34218589448279
IRIDIUM 144             
1 43249U 18030A   26197.25429869  .00000069  00000+0  17699-4 0  9994
2 43249  86.3956 278.2475 0002392  96.4668 263.6800 14.34218065434304
IRIDIUM 149             
1 43250U 18030B   26197.19087295  .00000096  00000+0  27369-4 0  9997
2 43250  86.3955 278.2406 0002261  93.1099 267.0356 14.34218163434310
IRIDIUM 157             
1 43251U 18030C   26197.20990295  .00000138  00000+0  42309-4 0  9991
2 43251  86.3959 278.2867 0002261  94.1530 265.9924 14.34218268434298
IRIDIUM 140             
1 43252U 18030D   26197.22893113  .00000144  00000+0  44472-4 0  9995
2 43252  86.3958 278.2913 0002245  95.6747 264.4705 14.34217906434354
IRIDIUM 145             
1 43253U 18030E   26197.21624310  .00000116  00000+0  34190-4 0  9991
2 43253  86.3957 278.2685 0002559  99.9081 260.2404 14.34217627434288
IRIDIUM 146             
1 43254U 18030F   26197.19721574  .00000066  00000+0  16622-4 0  9993
2 43254  86.3958 278.2888 0002386  96.2850 263.8618 14.34217619434295
IRIDIUM 148             
1 43255U 18030G   26197.16550549  .00000142  00000+0  43622-4 0  9998
2 43255  86.3959 278.3454 0002339  93.2581 266.8882 14.34218248434322
IRIDIUM 142             
1 43256U 18030H   26197.20355858  .00000076  00000+0  19999-4 0  9996
2 43256  86.3955 278.2175 0002447  96.5159 263.6316 14.34218022434298
IRIDIUM 150             
1 43257U 18030J   26196.19508457 -.00000181  00000+0 -71753-4 0  9994
2 43257  86.3956 278.7566 0002169  95.4767 264.6676 14.34216004434178
IRIDIUM 143             
1 43258U 18030K   26197.22258721  .00000083  00000+0  22734-4 0  9990
2 43258  86.3962 278.4207 0002328  96.6241 263.5220 14.34217700434258
IRIDIUM 161             
1 43478U 18047C   26197.14928095  .00000159  00000+0  41370-4 0  9992
2 43478  86.4461  76.3591 0002245  80.8661 279.2793 14.43276000429315
IRIDIUM 152             
1 43479U 18047D   26197.19530463  .00000062  00000+0  14930-4 0  9991
2 43479  86.3933  76.2010 0002150  83.0006 277.1435 14.34218414426645
IRIDIUM 147             
1 43480U 18047E   26197.20164656  .00000077  00000+0  20322-4 0  9990
2 43480  86.3937  76.2042 0002269  88.6931 271.4524 14.34217387426649
IRIDIUM 110             
1 43481U 18047F   26197.20798755  .00000149  00000+0  46086-4 0  9999
2 43481  86.3939  76.2942 0002087  77.3611 282.7818 14.34218887426635
IRIDIUM 162             
1 43482U 18047G   26197.21231516  .00000181  00000+0  47894-4 0  9992
2 43482  86.4459  76.2233 0002194  87.1409 273.0043 14.43278798429318
IRIDIUM 160             
1 43569U 18061A   26197.29336146  .00000132  00000+0  40059-4 0  9999
2 43569  86.3940  44.6223 0002229  86.8664 273.2787 14.34217352417542
IRIDIUM 166             
1 43570U 18061B   26197.10942709  .00000051  00000+0  11121-4 0  9997
2 43570  86.3938  44.6494 0002277  89.7065 270.4391 14.34217746417548
IRIDIUM 158             
1 43571U 18061C   26197.07771343  .00000071  00000+0  18224-4 0  9991
2 43571  86.3939  44.6723 0002086  88.3727 271.7708 14.34217912417500
IRIDIUM 165             
1 43572U 18061D   26197.10308526  .00000034  00000+0  49603-5 0  9990
2 43572  86.3940  44.7086 0002285  90.7910 269.3548 14.34217160417531
IRIDIUM 155             
1 43573U 18061E   26197.06502840  .00000081  00000+0  21763-4 0  9999
2 43573  86.3936  44.5925 0002102  89.7267 270.4170 14.34217738417498
